ONEWEB-0269             
1 48987U 21060W   23317.31997367  .00000024  00000+0  27904-4 0  9997
2 48987  87.9084  57.2511 0001741 101.1062 259.0265 13.16593277116336
ONEWEB-0270             
1 48988U 21060X   23317.33686028  .00000123  00000+0  28804-3 0  9998
2 48988  87.9086  57.2340 0000980 107.7053 252.4184 13.16595274116386
ONEWEB-0271             
1 48989U 21060Y   23317.32418666  .00000068  00000+0  14530-3 0  9998
2 48989  87.9088  57.2117 0001257  93.0896 267.0379 13.16596422116363
ONEWEB-0272             
1 48990U 21060Z   23317.34742264  .00000120  00000+0  28106-3 0  9999
2 48990  87.9092  57.2326 0001391  96.0419 264.0870 13.16595087116320
ONEWEB-0273             
1 48991U 21060AA  23317.52051749  .00000093  00000+0  20900-3 0  9994
2 48991  87.9092  57.1867 0001412 102.9382 257.1907 13.16595389116329
ONEWEB-0274             
1 48992U 21060AB  23317.31785557 -.00000214  00000+0 -59454-3 0  9996
2 48992  87.9088  57.2306 0001781  80.0879 280.0452 13.16593150116335
ONEWEB-0275             
1 48993U 21060AC  23316.85132522 -.00000029  00000+0 -10845-3 0  9998
2 48993  87.9083  57.3222 0001514 101.4264 258.7037 13.16590476114909
ONEWEB-0276             
1 48994U 21060AD  23317.34108199  .00000136  00000+0  32286-3 0  9997
2 48994  87.9088  57.2158 0001290 104.4773 255.6501 13.16594787116285
ONEWEB-0277             
1 48995U 21060AE  23316.82176793  .00000064  00000+0  13344-3 0  9999
2 48995  87.9090  57.3585 0001084  89.2400 270.8855 13.16594238114901
ONEWEB-0278             
1 48996U 21060AF  23317.34319003  .00000527  00000+0  13457-2 0  9999
2 48996  87.9088  57.2116 0001910 120.6773 239.4546 13.16592048116412
ONEWEB-0279             
1 48997U 21060AG  23316.81967058 -.00000529  00000+0 -14177-2 0  9994
2 48997  87.9094  57.3137 0001687 100.0883 260.0438 13.16580118114962
ONEWEB-0280             
1 48998U 21060AH  23317.51841505  .00000130  00000+0  30524-3 0  9992
2 48998  87.9093  57.1750 0001086  78.6434 281.4819 13.16595762116284
ONEWEB-0281             
1 48999U 21060AJ  23317.52473780  .00000032  00000+0  50041-4 0  9998
2 48999  87.9090  57.1774 0001821  95.9099 264.2239 13.16594940116376
ONEWEB-0282             
1 49000U 21060AK  23317.32630281  .00000062  00000+0  12746-3 0  9993
2 49000  87.9087  57.2331 0001275 108.6265 251.5004 13.16594675116336
ONEWEB-0283             
1 49001U 21060AL  23317.31575304  .00000001  00000+0 -29695-4 0  9993
2 49001  87.9079  57.2491 0001302  93.7987 266.3292 13.16594939116348
ONEWEB-0284             
1 49002U 21060AM  23316.85343820 -.00000033  00000+0 -11911-3 0  9995
2 49002  87.9074  57.3376 0001383 109.2840 250.8440 13.16595779114947
ONEWEB-0285             
1 49075U 21075A   23316.89079683 -.00000232  00000+0 -68027-3 0  9999
2 49075  87.9034 179.0547 0001464  81.8032 278.3263 13.12446613110956
ONEWEB-0286             
1 49076U 21075B   23316.86109479  .00000066  00000+0  14878-3 0  9992
2 49076  87.9029 179.0697 0002000  81.3543 278.7812 13.12446117110308
ONEWEB-0287             
1 49077U 21075C   23317.39632897  .00000051  00000+0  98619-4 0  9997
2 49077  87.9232 194.0609 0001702  91.2889 268.8437 13.17649687109916
ONEWEB-0288             
1 49078U 21075D   23317.37997041  .00000412  00000+0  11099-2 0  9997
2 49078  87.9025 178.9723 0001628  83.9280 276.2034 13.12445167111983
ONEWEB-0289             
1 49079U 21075E   23317.12001870  .00000160  00000+0  37947-3 0  9998
2 49079  87.9248 194.1328 0001594  71.7771 288.3534 13.17649695110451
ONEWEB-0290             
1 49080U 21075F   23317.10313452  .00000101  00000+0  22654-3 0  9994
2 49080  87.9222 194.1115 0001401  88.7032 271.4260 13.17649708109872
ONEWEB-0291             
1 49081U 21075G   23317.39000215  .00000018  00000+0  12482-4 0  9992
2 49081  87.9233 194.0795 0001589  89.4446 270.6867 13.17649918109914
ONEWEB-0293             
1 49082U 21075H   23317.11157717  .00000117  00000+0  26884-3 0  9993
2 49082  87.9247 194.1325 0001479  85.4828 274.6472 13.17648487109891
ONEWEB-0294             
1 49083U 21075J   23317.15656813  .00000443  00000+0  11971-2 0  9991
2 49083  87.9027 179.0148 0001359 113.1807 246.9465 13.12443550111342
ONEWEB-0295             
1 49084U 21075K   23317.11367927  .00000136  00000+0  31625-3 0  9991
2 49084  87.9252 194.1044 0001826  93.2665 266.8675 13.17649985109835
ONEWEB-0296             
1 49085U 21075L   23317.14064218  .00000381  00000+0  10250-2 0  9994
2 49085  87.9029 179.0159 0001911 107.0437 253.0900 13.12447441111349
ONEWEB-0297             
1 49086U 21075M   23316.86539358 -.00000125  00000+0 -38273-3 0  9999
2 49086  87.9039 179.0593 0001764  74.0498 286.0825 13.12443234110920
ONEWEB-0298             
1 49087U 21075N   23316.88798785  .00000039  00000+0  68139-4 0  9990
2 49087  87.9253 194.1697 0001796  80.5142 279.6192 13.17650120108870
ONEWEB-0299             
1 49088U 21075P   23316.96602449  .00000058  00000+0  11559-3 0  9995
2 49088  87.9234 194.1396 0001820  84.2661 275.8678 13.17647989108866
ONEWEB-0300             
1 49089U 21075Q   23317.16185906  .00000183  00000+0  47394-3 0  9998
2 49089  87.9026 179.0114 0001732  74.7189 285.4131 13.12443442111977
ONEWEB-0301             
1 49090U 21075R   23317.14704534  .00000479  00000+0  12956-2 0  9995
2 49090  87.9027 179.0168 0001633  65.7210 294.4089 13.12443912111338
ONEWEB-0302             
1 49091U 21075S   23316.90667095  .00000147  00000+0  37454-3 0  9992
2 49091  87.9029 179.0612 0001557  88.9352 271.1955 13.12443967110292
ONEWEB-0304             
1 49092U 21075T   23316.94282524  .00000066  00000+0  13735-3 0  9993
2 49092  87.9232 194.1552 0001790  80.3865 279.7469 13.17647944108831
ONEWEB-0305             
1 49093U 21075U   23317.16007979 -.00000169  00000+0 -46953-3 0  9992
2 49093  87.9235 194.1012 0002009  88.8011 271.3350 13.17647970109866
ONEWEB-0308             
1 49094U 21075V   23317.35670196 -.00000141  00000+0 -42719-3 0  9997
2 49094  87.9027 178.9735 0001577  74.7895 285.3407 13.12443442111360
ONEWEB-0309             
1 49095U 21075W   23317.09047425  .00000022  00000+0  24408-4 0  9994
2 49095  87.9231 194.1166 0001355 101.1452 258.9831 13.17648463109846
ONEWEB-0310             
1 49096U 21075X   23317.37045137  .00000393  00000+0  10580-2 0  9999
2 49096  87.9037 178.9584 0001300  85.8108 274.3169 13.12443422111999
ONEWEB-0311             
1 49097U 21075Y   23317.09679949  .00000100  00000+0  22388-3 0  9999
2 49097  87.9233 194.1148 0002097  84.7732 275.3639 13.17650781109903
ONEWEB-0312             
1 49098U 21075Z   23316.95758895  .00000029  00000+0  41052-4 0  9992
2 49098  87.9249 194.1673 0001719  95.0492 265.0836 13.17647561108863
ONEWEB-0313             
1 49099U 21075AA  23317.16430565  .00000084  00000+0  18346-3 0  9998
2 49099  87.9232 194.1368 0001745  89.4646 270.6686 13.17649653109886
ONEWEB-0314             
1 49100U 21075AB  23316.93017186 -.00000085  00000+0 -25331-3 0  9990
2 49100  87.9236 194.1460 0001849  95.8231 264.3112 13.17647131108828
ONEWEB-0315             
1 49101U 21075AC  23317.11525178 -.00000341  00000+0 -98206-3 0  9993
2 49101  87.9027 179.0162 0001749  72.0210 288.1109 13.12440846111947
ONEWEB-0316             
1 49102U 21075AD  23317.14435519  .00000056  00000+0  10920-3 0  9994
2 49102  87.9156 163.8659 0001895  83.8570 276.2778 13.18686435113409
ONEWEB-0317             
1 49103U 21075AE  23317.33759301 -.00000878  00000+0 -24761-2 0  9995
2 49103  87.9029 178.9776 0001331  84.3659 275.7622 13.12441846111987
ONEWEB-0318             
1 49104U 21075AF  23317.14223711  .00000069  00000+0  14346-3 0  9995
2 49104  87.9158 163.8588 0001995  81.8339 278.3020 13.18684969113353
ONEWEB-0319             
1 49105U 21075AG  23316.94704522  .00000038  00000+0  65050-4 0  9992
2 49105  87.9249 194.1630 0002237  86.5602 273.5785 13.17649278108863
ONEWEB-0323             
1 49106U 21075AH  23316.87066857 -.00000233  00000+0 -68258-3 0  9998
2 49106  87.9030 179.0588 0001785  84.2630 275.8702 13.12442960110297
ONEWEB-0329             
1 49107U 21075AJ  23316.95338117  .00000017  00000+0  11328-4 0  9994
2 49107  87.9250 194.1650 0001694  86.3543 273.7782 13.17648574108842
ONEWEB-0330             
1 49108U 21075AK  23317.10735321  .00000099  00000+0  22220-3 0  9993
2 49108  87.9231 194.1426 0001580  89.9830 270.1483 13.17649844109891
ONEWEB-0292             
1 49186U 21083A   23316.81920502  .00000181  00000+0  46125-3 0  9994
2 49186  87.8984 148.7743 0001805  89.2970 270.8366 13.13470957106567
ONEWEB-0303             
1 49187U 21083B   23317.13802122  .00000051  00000+0  96014-4 0  9997
2 49187  87.9158 163.8625 0001844  83.9029 276.2313 13.18685055106449
ONEWEB-0306             
1 49188U 21083C   23317.12960202  .00000007  00000+0 -13777-4 0  9998
2 49188  87.9156 163.8498 0001821  76.1735 283.9599 13.18687350106484
ONEWEB-0307             
1 49189U 21083D   23317.04350847 -.00000031  00000+0 -11999-3 0  9999
2 49189  87.8986 148.7280 0001493  87.2366 272.8934 13.13471468107885
ONEWEB-0320             
1 49190U 21083E   23317.51530626  .00000014  00000+0  35315-5 0  9997
2 49190  87.9160 163.7985 0001511  85.0811 275.0494 13.18686663106495
ONEWEB-0321             
1 49191U 21083F   23317.46883552  .00000030  00000+0  41081-4 0  9995
2 49191  87.9158 102.9087 0001341  85.5616 274.5670 13.20769870113145
ONEWEB-0322             
1 49192U 21083G   23316.81072430 -.00000160  00000+0 -47251-3 0  9999
2 49192  87.8982 148.7627 0000896  90.8394 269.2838 13.13473398106557
ONEWEB-0324             
1 49193U 21083H   23317.50055561 -.00000033  00000+0 -11604-3 0  9995
2 49193  87.9157 163.7802 0001598  97.1639 262.9675 13.18685638106519
ONEWEB-0325             
1 49194U 21083J   23317.50478346  .00000209  00000+0  49815-3 0  9994
2 49194  87.9206 163.7864 0001609  77.2539 282.8773 13.18688879106525
